{"type": "Feature", "properties": {}, "geometry": {"type": "LineString", "coordinates": [[-4.539737, 36.59898], [-4.539725, 36.599041], [-4.539893, 36.599185], [-4.540122, 36.599241], [-4.540462, 36.599042], [-4.540979, 36.599233], [-4.54144, 36.599392], [-4.541859, 36.599547], [-4.542286, 36.599739], [-4.542739, 36.599953], [-4.543122, 36.600269], [-4.542993, 36.60059], [-4.542965, 36.600793], [-4.542837, 36.601125], [-4.542705, 36.601346], [-4.542629, 36.601606], [-4.54249, 36.601881], [-4.542479, 36.602228], [-4.542385, 36.602503], [-4.542326, 36.602661], [-4.542215, 36.602959], [-4.542011, 36.60318], [-4.542114, 36.603453], [-4.541967, 36.603701], [-4.541902, 36.603947], [-4.541834, 36.604175], [-4.541647, 36.604459], [-4.541505, 36.604624], [-4.541327, 36.604801], [-4.541117, 36.604998], [-4.540936, 36.605221], [-4.540778, 36.605396], [-4.540568, 36.605675], [-4.540337, 36.605908], [-4.54016, 36.60614], [-4.539859, 36.606425], [-4.539625, 36.606698], [-4.539381, 36.606988], [-4.53909, 36.607295], [-4.538808, 36.607385], [-4.538621, 36.607672], [-4.538338, 36.607878], [-4.538032, 36.608103], [-4.537652, 36.608329], [-4.537364, 36.608522], [-4.537018, 36.608723], [-4.536772, 36.608921], [-4.536647, 36.609063], [-4.53646, 36.609257], [-4.536275, 36.609439], [-4.535896, 36.609613], [-4.535716, 36.609747], [-4.535722, 36.60978], [-4.535731, 36.609773], [-4.535799, 36.610112], [-4.53591, 36.610495], [-4.536007, 36.610727], [-4.536152, 36.610944], [-4.536487, 36.611136], [-4.536736, 36.611361], [-4.536991, 36.61154], [-4.53745, 36.61154], [-4.537664, 36.611734], [-4.537754, 36.612052], [-4.538106, 36.612277], [-4.538436, 36.612279], [-4.538767, 36.612266], [-4.539149, 36.612121], [-4.53936, 36.611988], [-4.539611, 36.611833], [-4.540098, 36.611831], [-4.540303, 36.611867], [-4.54065, 36.611952], [-4.540913, 36.612074], [-4.541183, 36.612111], [-4.541414, 36.612164], [-4.541669, 36.612145], [-4.541793, 36.612166], [-4.541784, 36.61215], [-4.541914, 36.612192], [-4.542059, 36.612411], [-4.542278, 36.612713], [-4.542427, 36.612961], [-4.542595, 36.613207], [-4.542683, 36.613353], [-4.542803, 36.613475], [-4.542961, 36.613696], [-4.543064, 36.613802], [-4.543171, 36.613957], [-4.543325, 36.614128], [-4.543548, 36.614215], [-4.543843, 36.614225], [-4.544103, 36.614195], [-4.54437, 36.614115], [-4.54458, 36.614056], [-4.544716, 36.613982], [-4.544869, 36.613973], [-4.544944, 36.614145], [-4.545013, 36.614324], [-4.545126, 36.614482], [-4.545216, 36.614505], [-4.545345, 36.614573], [-4.545523, 36.614608], [-4.54579, 36.6145], [-4.545927, 36.614251], [-4.54612, 36.614061], [-4.546445, 36.613975], [-4.546743, 36.614008], [-4.546999, 36.614048], [-4.547113, 36.61404], [-4.547125, 36.614077], [-4.547211, 36.613947], [-4.547273, 36.613833], [-4.547389, 36.613733], [-4.547524, 36.613645], [-4.54783, 36.61348], [-4.548041, 36.613437], [-4.548126, 36.613432], [-4.548146, 36.613502], [-4.54818, 36.61356], [-4.548217, 36.613653], [-4.548289, 36.613717], [-4.548382, 36.613803], [-4.548397, 36.613908], [-4.548317, 36.613987], [-4.548157, 36.614093], [-4.547961, 36.614209], [-4.547892, 36.614291], [-4.547989, 36.614334], [-4.548046, 36.614412], [-4.548085, 36.614442], [-4.54808, 36.614426], [-4.548126, 36.614477], [-4.548097, 36.614552], [-4.548178, 36.614602], [-4.548197, 36.614639], [-4.548297, 36.614669], [-4.548268, 36.61469], [-4.54817, 36.614645], [-4.54811, 36.614641], [-4.548052, 36.614656], [-4.548055, 36.614577], [-4.54803, 36.614465], [-4.547922, 36.614429], [-4.547958, 36.614389], [-4.547859, 36.61431], [-4.547759, 36.6143], [-4.54762, 36.614251], [-4.547525, 36.614124], [-4.547446, 36.614043], [-4.547301, 36.614065], [-4.547182, 36.614101], [-4.547125, 36.614103], [-4.546921, 36.614087], [-4.546617, 36.614075], [-4.546219, 36.614086], [-4.545924, 36.614196], [-4.545752, 36.614574], [-4.545248, 36.614599], [-4.54494, 36.614317], [-4.544826, 36.614055], [-4.544881, 36.613973], [-4.545187, 36.613845], [-4.545413, 36.613625], [-4.545605, 36.613266], [-4.545702, 36.613065], [-4.545836, 36.612711], [-4.545849, 36.612432], [-4.545816, 36.612162], [-4.545781, 36.611886], [-4.545906, 36.611711], [-4.5463, 36.61172], [-4.546704, 36.611628], [-4.547174, 36.611485], [-4.547497, 36.611307], [-4.547615, 36.61111], [-4.54765, 36.610953], [-4.547642, 36.610963], [-4.54754, 36.611122], [-4.547466, 36.611284], [-4.547315, 36.611408], [-4.547154, 36.611487], [-4.547001, 36.611523], [-4.546989, 36.611489], [-4.546718, 36.611515], [-4.546286, 36.611529], [-4.546019, 36.61158], [-4.545613, 36.611459], [-4.545302, 36.611188], [-4.544955, 36.611205], [-4.54462, 36.611312], [-4.544181, 36.611433], [-4.543795, 36.6116], [-4.543365, 36.61173], [-4.542897, 36.611871], [-4.542539, 36.611995], [-4.542133, 36.612129], [-4.541881, 36.612197], [-4.541782, 36.612294], [-4.541909, 36.6127], [-4.542087, 36.613053], [-4.542292, 36.613237], [-4.542543, 36.613488], [-4.542608, 36.613716], [-4.542613, 36.613938], [-4.542635, 36.614201], [-4.542775, 36.614398], [-4.54297, 36.614521], [-4.543236, 36.614641], [-4.54355, 36.614818], [-4.543711, 36.614935], [-4.543954, 36.615161], [-4.544161, 36.615295], [-4.544365, 36.615505], [-4.544648, 36.615802], [-4.544737, 36.616073], [-4.544757, 36.616393], [-4.544769, 36.616721], [-4.5448, 36.617004], [-4.544889, 36.617338], [-4.545061, 36.617518], [-4.545321, 36.617652], [-4.545504, 36.617768], [-4.545723, 36.617897], [-4.545927, 36.618091], [-4.545997, 36.618217], [-4.546198, 36.618408], [-4.546517, 36.618511], [-4.546798, 36.618553], [-4.547003, 36.618681], [-4.547124, 36.618905], [-4.546946, 36.619119], [-4.546745, 36.619411], [-4.546754, 36.619697], [-4.546818, 36.619867], [-4.547059, 36.620074], [-4.547266, 36.620134], [-4.547501, 36.620052], [-4.547771, 36.619949], [-4.548013, 36.619957], [-4.548207, 36.620041], [-4.548478, 36.620253], [-4.548609, 36.620344], [-4.54878, 36.62047], [-4.548917, 36.620687], [-4.549005, 36.620867], [-4.5491, 36.621007], [-4.549217, 36.621087], [-4.549311, 36.621112], [-4.549381, 36.621105], [-4.549413, 36.621101], [-4.549425, 36.621126], [-4.54944, 36.621131], [-4.549461, 36.621119], [-4.549545, 36.621119], [-4.549832, 36.620973], [-4.549892, 36.620785], [-4.550079, 36.620688], [-4.550375, 36.620685], [-4.550611, 36.620735], [-4.55094, 36.620779], [-4.551186, 36.620821], [-4.55142, 36.620843], [-4.551709, 36.620901], [-4.551756, 36.62111], [-4.55185, 36.621353], [-4.552065, 36.621553], [-4.55234, 36.621708], [-4.552564, 36.62188], [-4.552667, 36.622022], [-4.552727, 36.622198], [-4.552822, 36.622336], [-4.552957, 36.622399], [-4.553063, 36.622426], [-4.553257, 36.62252], [-4.553443, 36.622604], [-4.553556, 36.622668], [-4.553674, 36.622837], [-4.553858, 36.622888], [-4.554022, 36.622904], [-4.554237, 36.622864], [-4.554406, 36.622791], [-4.554549, 36.622702], [-4.554653, 36.622629], [-4.554822, 36.622555], [-4.555054, 36.622445], [-4.555305, 36.622324], [-4.555412, 36.622268], [-4.555622, 36.622168], [-4.555801, 36.622072], [-4.555966, 36.622009], [-4.556101, 36.62195], [-4.556262, 36.621974], [-4.556407, 36.621934], [-4.55664, 36.621837], [-4.556788, 36.62178], [-4.556931, 36.621781], [-4.557099, 36.621793], [-4.557195, 36.621817], [-4.557296, 36.621832], [-4.557419, 36.621863], [-4.557544, 36.621828], [-4.557666, 36.621814], [-4.557669, 36.621776], [-4.55749, 36.621762], [-4.557346, 36.621667], [-4.557195, 36.6216], [-4.557112, 36.621569], [-4.556921, 36.621485], [-4.556817, 36.621438], [-4.556618, 36.621478], [-4.556636, 36.621413], [-4.556999, 36.62131], [-4.557202, 36.621324], [-4.55747, 36.621349], [-4.557475, 36.621328], [-4.557234, 36.621292], [-4.557144, 36.621244], [-4.557061, 36.621201], [-4.557027, 36.621175], [-4.557072, 36.621157], [-4.557068, 36.621121], [-4.557168, 36.621111], [-4.557453, 36.621132], [-4.557756, 36.621174], [-4.558025, 36.621206], [-4.558301, 36.621252], [-4.55854, 36.621304], [-4.558831, 36.621314], [-4.558907, 36.62135], [-4.559064, 36.621368], [-4.559192, 36.621369], [-4.559256, 36.621466], [-4.559494, 36.621478], [-4.559714, 36.62152], [-4.55985, 36.621503], [-4.559991, 36.621512], [-4.560057, 36.621573], [-4.560199, 36.621573], [-4.560325, 36.621718], [-4.560386, 36.621739], [-4.560506, 36.621724], [-4.560612, 36.62175], [-4.560703, 36.621793], [-4.56082, 36.621852], [-4.560937, 36.621903], [-4.560957, 36.622007], [-4.560881, 36.622082], [-4.560921, 36.62208], [-4.561036, 36.622055], [-4.561076, 36.62199], [-4.561086, 36.621765], [-4.560926, 36.6216], [-4.56071, 36.621413], [-4.560627, 36.62131], [-4.560554, 36.621252], [-4.560481, 36.621128], [-4.560375, 36.621003], [-4.560219, 36.620888], [-4.560111, 36.620834], [-4.55992, 36.62078], [-4.559759, 36.620717], [-4.559572, 36.620648], [-4.559376, 36.620515], [-4.559227, 36.620428], [-4.559015, 36.620282], [-4.558805, 36.620167], [-4.558683, 36.620133], [-4.558533, 36.620045], [-4.558406, 36.619947], [-4.558162, 36.619887], [-4.557944, 36.619725], [-4.557843, 36.619473], [-4.557816, 36.619245], [-4.557816, 36.619038], [-4.557768, 36.618716], [-4.557973, 36.618571], [-4.558367, 36.618519], [-4.558607, 36.618525], [-4.558834, 36.618467], [-4.559041, 36.618458], [-4.559256, 36.618314], [-4.559351, 36.618096], [-4.559409, 36.617847], [-4.559403, 36.617567], [-4.559405, 36.617319], [-4.559321, 36.617033], [-4.559314, 36.616766], [-4.559511, 36.616665], [-4.559568, 36.616654], [-4.559674, 36.616608], [-4.559744, 36.616557], [-4.559786, 36.616541], [-4.559836, 36.616375], [-4.559889, 36.616316], [-4.559917, 36.616339], [-4.559974, 36.616369], [-4.560007, 36.616485], [-4.560026, 36.616624], [-4.560126, 36.616772], [-4.560189, 36.61688], [-4.560236, 36.616926], [-4.56022, 36.616948], [-4.560243, 36.617066], [-4.560271, 36.617169], [-4.56028, 36.617262], [-4.560276, 36.617379], [-4.560166, 36.617314], [-4.560116, 36.617252], [-4.560078, 36.617236], [-4.560159, 36.617265], [-4.560357, 36.617347], [-4.560334, 36.6172], [-4.560311, 36.617107], [-4.560244, 36.61693], [-4.560372, 36.616943], [-4.560508, 36.616941], [-4.560634, 36.616946], [-4.560734, 36.616972], [-4.560816, 36.616974], [-4.560917, 36.617063], [-4.561011, 36.617066], [-4.561046, 36.617002], [-4.56106, 36.616912], [-4.561072, 36.6169]]}}