{"type": "Feature", "properties": {}, "geometry": {"type": "LineString", "coordinates": [[0.940553, 51.18463], [0.940929, 51.184918], [0.941778, 51.185126], [0.943068, 51.184924], [0.944439, 51.184782], [0.945545, 51.184662], [0.946349, 51.184605], [0.946702, 51.18465], [0.94771, 51.184481], [0.949095, 51.184336], [0.950421, 51.184221], [0.951412, 51.184091], [0.952793, 51.18391], [0.954023, 51.183858], [0.954941, 51.183852], [0.95607, 51.184004], [0.95723, 51.184158], [0.958301, 51.184281], [0.958382, 51.184279], [0.958393, 51.184291], [0.958444, 51.184313], [0.958652, 51.184373], [0.959729, 51.184523], [0.96057, 51.184173], [0.961191, 51.18371], [0.961926, 51.183174], [0.962507, 51.18258], [0.962732, 51.18222], [0.962956, 51.181523], [0.962897, 51.181337], [0.963255, 51.181259], [0.964297, 51.180733], [0.965079, 51.180156], [0.965521, 51.179473], [0.96605, 51.178733], [0.966449, 51.178014], [0.966803, 51.177412], [0.967616, 51.176833], [0.968479, 51.176233], [0.969098, 51.175732], [0.969626, 51.174963], [0.969692, 51.174194], [0.969739, 51.173649], [0.970016, 51.17312], [0.969793, 51.172554], [0.96981, 51.171902], [0.969675, 51.171485], [0.969803, 51.170787], [0.970937, 51.170569], [0.971203, 51.170105], [0.971612, 51.169694], [0.972257, 51.168989], [0.972245, 51.168416], [0.972615, 51.167909], [0.973425, 51.16751], [0.973767, 51.16718], [0.974496, 51.166582], [0.975306, 51.166099], [0.976332, 51.165806], [0.977432, 51.165714], [0.977971, 51.165829], [0.979112, 51.165592], [0.980349, 51.165381], [0.981069, 51.165081], [0.982019, 51.164742], [0.982576, 51.164521], [0.983383, 51.164081], [0.983716, 51.163298], [0.984174, 51.162653], [0.984202, 51.162576], [0.984465, 51.161825], [0.98484, 51.161182], [0.985772, 51.16099], [0.986562, 51.160675], [0.986594, 51.159913], [0.986757, 51.159091], [0.986876, 51.158305], [0.986757, 51.157431], [0.987842, 51.157315], [0.989198, 51.157156], [0.990245, 51.157012], [0.991086, 51.156724], [0.992001, 51.156178], [0.993025, 51.155625], [0.99381, 51.155007], [0.994369, 51.154243], [0.994795, 51.153543], [0.995213, 51.152885], [0.995958, 51.152283], [0.996669, 51.151797], [0.997703, 51.151262], [0.99804, 51.151077], [0.998846, 51.150595], [1.000027, 51.150153], [1.001147, 51.149733], [1.002091, 51.149463], [1.003149, 51.149069], [1.004247, 51.148671], [1.005063, 51.148331], [1.004795, 51.147772], [1.003979, 51.147067], [1.003286, 51.146476], [1.002172, 51.146073], [1.001061, 51.145748], [1.001081, 51.145717], [1.001447, 51.145], [1.001858, 51.144316], [1.003118, 51.144442], [1.004208, 51.144145], [1.005145, 51.143782], [1.006333, 51.143491], [1.007479, 51.143046], [1.008359, 51.142399], [1.009012, 51.142117], [1.009813, 51.141816], [1.009816, 51.141796], [1.009851, 51.141774], [1.009858, 51.141761], [1.009833, 51.141755], [1.009845, 51.141743], [1.009859, 51.141773], [1.009807, 51.14175], [1.009805, 51.14176], [1.009813, 51.141771], [1.009825, 51.141763], [1.009799, 51.141768], [1.009827, 51.141762], [1.009811, 51.141759], [1.009833, 51.141739], [1.009816, 51.141759], [1.009796, 51.141761], [1.009787, 51.141746], [1.00985, 51.141737], [1.009822, 51.141764], [1.010296, 51.141531], [1.011306, 51.141299], [1.012484, 51.141173], [1.013602, 51.141015], [1.01456, 51.140681], [1.015539, 51.140167], [1.016246, 51.139568], [1.016766, 51.138883], [1.016602, 51.138216], [1.016825, 51.137606], [1.017552, 51.137103], [1.018199, 51.136527], [1.018288, 51.136502], [1.019332, 51.135958], [1.02012, 51.135133], [1.020785, 51.134583], [1.021806, 51.13416], [1.02291, 51.13394], [1.023674, 51.134022], [1.02474, 51.133957], [1.025677, 51.133661], [1.026686, 51.133302], [1.027567, 51.132984], [1.028605, 51.132712], [1.029206, 51.132526], [1.030143, 51.132058], [1.031024, 51.13209], [1.031855, 51.132405], [1.032801, 51.13249], [1.033863, 51.132144], [1.034963, 51.131665], [1.035881, 51.131262], [1.036909, 51.130903], [1.037377, 51.131258], [1.037742, 51.131482], [1.038016, 51.131405], [1.038472, 51.13148], [1.039153, 51.131578], [1.039942, 51.131645], [1.040197, 51.131672], [1.041304, 51.131628], [1.041705, 51.131647], [1.042667, 51.131301], [1.043761, 51.131129], [1.044827, 51.130819], [1.045834, 51.130433], [1.046614, 51.129898], [1.046403, 51.129142], [1.046636, 51.128294], [1.047246, 51.127688], [1.047745, 51.127099], [1.048365, 51.126421], [1.049036, 51.125796], [1.049681, 51.125169], [1.050346, 51.124455], [1.050636, 51.123809], [1.050905, 51.123111], [1.051591, 51.122791], [1.052729, 51.122456], [1.052793, 51.121904], [1.052238, 51.121181], [1.05161, 51.120459], [1.050984, 51.119854], [1.051772, 51.119416], [1.052949, 51.119104], [1.053457, 51.118991], [1.05436, 51.118527], [1.055293, 51.118203], [1.056097, 51.117905], [1.057311, 51.117722], [1.058464, 51.11742], [1.059025, 51.116723], [1.059744, 51.116048], [1.06072, 51.115868], [1.061725, 51.116098], [1.061402, 51.115399], [1.061934, 51.114879], [1.062843, 51.114723], [1.063913, 51.114472], [1.064865, 51.114039], [1.064793, 51.113344], [1.064618, 51.113034], [1.064618, 51.113034], [1.064603, 51.113049], [1.064622, 51.113051], [1.06462, 51.113051], [1.064632, 51.113048], [1.064635, 51.113045], [1.064779, 51.113013], [1.065658, 51.113143], [1.066973, 51.11328], [1.067764, 51.113226], [1.068915, 51.113253], [1.06957, 51.1133], [1.070033, 51.11331], [1.070548, 51.113213], [1.071507, 51.113354], [1.07215, 51.112859], [1.072945, 51.112294], [1.073878, 51.11272], [1.074981, 51.112995], [1.075992, 51.112871], [1.076989, 51.113123], [1.077195, 51.11267], [1.077503, 51.112082], [1.077586, 51.111909], [1.078194, 51.111339], [1.078628, 51.110691], [1.079315, 51.110064], [1.080065, 51.109669], [1.08114, 51.109188], [1.082281, 51.108684], [1.083231, 51.108394], [1.084247, 51.108745], [1.084618, 51.108212], [1.0857, 51.10783], [1.086314, 51.107395], [1.087527, 51.107], [1.088453, 51.106494], [1.089488, 51.106268], [1.090584, 51.106279], [1.091876, 51.106081], [1.093143, 51.105944], [1.093628, 51.10685], [1.094541, 51.107741], [1.095027, 51.108494], [1.095967, 51.109141], [1.096623, 51.109734], [1.097464, 51.110286], [1.098084, 51.110876], [1.099495, 51.110813], [1.100462, 51.110546], [1.100533, 51.110504], [1.10092, 51.110351], [1.102105, 51.109948], [1.103105, 51.10965], [1.104102, 51.109555], [1.104801, 51.109881], [1.105948, 51.110142], [1.106618, 51.110215], [1.107719, 51.110589], [1.108125, 51.11075], [1.109201, 51.11122], [1.110189, 51.111756], [1.110976, 51.112224], [1.111539, 51.112556], [1.111782, 51.112159], [1.11128, 51.111394], [1.111407, 51.110973], [1.111676, 51.110877], [1.112809, 51.111097], [1.11361, 51.111685], [1.114003, 51.111745], [1.114487, 51.11173], [1.115102, 51.111718], [1.116074, 51.111646], [1.117152, 51.111468], [1.118467, 51.111507], [1.11967, 51.111455], [1.120717, 51.11162], [1.121248, 51.111058], [1.1216, 51.110319], [1.121627, 51.110281], [1.121651, 51.11026], [1.121796, 51.109677], [1.121849, 51.108862], [1.12222, 51.10818], [1.12291, 51.107657], [1.123633, 51.107151], [1.124147, 51.106622], [1.125217, 51.106551], [1.125005, 51.106147], [1.124819, 51.105701], [1.125138, 51.105194], [1.126045, 51.104804], [1.126489, 51.104358], [1.126474, 51.104111], [1.126459, 51.104079], [1.126432, 51.103823], [1.126312, 51.103128], [1.1261, 51.102467], [1.125976, 51.101797], [1.12602, 51.10111], [1.126202, 51.100443], [1.127031, 51.100554], [1.127342, 51.100455], [1.12733, 51.100454], [1.12737, 51.100462], [1.127779, 51.100448], [1.12734, 51.100486], [1.128302, 51.100627], [1.129575, 51.100832], [1.130491, 51.100792], [1.131345, 51.100996], [1.131706, 51.100829], [1.132549, 51.100513], [1.13376, 51.100421], [1.134677, 51.100474], [1.134992, 51.101039], [1.135766, 51.101103], [1.136631, 51.101345], [1.137569, 51.101767], [1.137679, 51.101731], [1.138318, 51.101789], [1.139263, 51.101645], [1.14047, 51.101663], [1.14154, 51.101459], [1.142237, 51.101194], [1.14259, 51.101055], [1.143139, 51.101057], [1.144194, 51.100868], [1.145169, 51.100705], [1.145975, 51.100845], [1.146937, 51.101027], [1.148145, 51.100887], [1.148974, 51.100719], [1.149512, 51.10061], [1.150529, 51.100461], [1.151798, 51.100578], [1.152929, 51.100652], [1.154111, 51.100634], [1.154923, 51.100777], [1.15601, 51.100899], [1.157074, 51.100735], [1.158099, 51.100575], [1.159129, 51.10022], [1.159402, 51.100156], [1.160285, 51.099828], [1.159202, 51.099545], [1.158928, 51.099071], [1.158942, 51.098985], [1.159049, 51.098312], [1.159326, 51.09799], [1.159682, 51.097687], [1.160142, 51.09757], [1.160565, 51.097767], [1.160868, 51.097802], [1.16159, 51.098095], [1.162228, 51.098661], [1.162335, 51.099115], [1.162971, 51.099779], [1.163283, 51.099903], [1.163478, 51.100005], [1.163522, 51.100003], [1.163535, 51.100015], [1.163549, 51.100027], [1.163562, 51.100039], [1.163635, 51.100095], [1.164495, 51.100349], [1.165623, 51.100533], [1.166663, 51.100521], [1.167615, 51.10053], [1.168636, 51.100695], [1.169591, 51.100927], [1.170313, 51.101196], [1.170853, 51.101488], [1.171315, 51.101417], [1.172313, 51.10127], [1.172339, 51.101271], [1.172967, 51.100823], [1.173703, 51.100269], [1.174565, 51.099896], [1.174127, 51.099202], [1.173096, 51.099314], [1.172339, 51.098853], [1.172336, 51.098517], [1.172956, 51.098381], [1.173406, 51.098114], [1.174062, 51.097882], [1.174115, 51.097803], [1.174107, 51.097203], [1.17461, 51.096734], [1.174377, 51.096353], [1.174734, 51.095741], [1.175652, 51.095671]]}}