{"type": "Feature", "properties": {}, "geometry": {"type": "LineString", "coordinates": [[1.095565, 51.266852], [1.096603, 51.266052], [1.098051, 51.26516], [1.099055, 51.265334], [1.100193, 51.264644], [1.101269, 51.26382], [1.102227, 51.263769], [1.103194, 51.264487], [1.104037, 51.265165], [1.10549, 51.266325], [1.106792, 51.267314], [1.107728, 51.268036], [1.109245, 51.267377], [1.110733, 51.266729], [1.112039, 51.266065], [1.113209, 51.265397], [1.114309, 51.264493], [1.115176, 51.263692], [1.116473, 51.263125], [1.117549, 51.262644], [1.118795, 51.262087], [1.120276, 51.261829], [1.121369, 51.261753], [1.122404, 51.261531], [1.123706, 51.261278], [1.125177, 51.260865], [1.126874, 51.260179], [1.12814, 51.259523], [1.128923, 51.259083], [1.130007, 51.258573], [1.130817, 51.25805], [1.131644, 51.257598], [1.132722, 51.256804], [1.133804, 51.256057], [1.134701, 51.255925], [1.135593, 51.255421], [1.136373, 51.254876], [1.137242, 51.254178], [1.137093, 51.253538], [1.13666, 51.252796], [1.136521, 51.252163], [1.136867, 51.251461], [1.136769, 51.250927], [1.136238, 51.250221], [1.13699, 51.249849], [1.137675, 51.249011], [1.137414, 51.248438], [1.136915, 51.247794], [1.136229, 51.247025], [1.135507, 51.246192], [1.135243, 51.245314], [1.135033, 51.244761], [1.135428, 51.244348], [1.135901, 51.243445], [1.136251, 51.242684], [1.136692, 51.241743], [1.13715, 51.240633], [1.137518, 51.239748], [1.137556, 51.239388], [1.138113, 51.238476], [1.13921, 51.23798], [1.139848, 51.237339], [1.140669, 51.236849], [1.14129, 51.236348], [1.141962, 51.23573], [1.142648, 51.234973], [1.143165, 51.234127], [1.143743, 51.233486], [1.144543, 51.232476], [1.145186, 51.23179], [1.14631, 51.230677], [1.147257, 51.229823], [1.148411, 51.22882], [1.149751, 51.227715], [1.150852, 51.226794], [1.151419, 51.226475], [1.152569, 51.225823], [1.15416, 51.224958], [1.155625, 51.224164], [1.156796, 51.223489], [1.157754, 51.222953], [1.158705, 51.222431], [1.15964, 51.221929], [1.16059, 51.221318], [1.161891, 51.220797], [1.163073, 51.220115], [1.164166, 51.219513], [1.165346, 51.218843], [1.166318, 51.218172], [1.167078, 51.217685], [1.168155, 51.217023], [1.169161, 51.216363], [1.170179, 51.215785], [1.17087, 51.215416], [1.171629, 51.215326], [1.172234, 51.215438], [1.17346, 51.214863], [1.174794, 51.214693], [1.175828, 51.214484], [1.177011, 51.214098], [1.178338, 51.213692], [1.1793, 51.213397], [1.179694, 51.213438], [1.180322, 51.21397], [1.181133, 51.213874], [1.182159, 51.213514], [1.183149, 51.213131], [1.184414, 51.212712], [1.185443, 51.21215], [1.186514, 51.211853], [1.187631, 51.211553], [1.188386, 51.211194], [1.187656, 51.210794], [1.187644, 51.210769], [1.187645, 51.210761], [1.187618, 51.210757], [1.18764, 51.210772], [1.187668, 51.210797], [1.18805, 51.210903], [1.188888, 51.211151], [1.190118, 51.210847], [1.19107, 51.21048], [1.192501, 51.209951], [1.194175, 51.209348], [1.195463, 51.208942], [1.196546, 51.208568], [1.19744, 51.208216], [1.197827, 51.207901], [1.197728, 51.207643], [1.198161, 51.207262], [1.199167, 51.207134], [1.200308, 51.206912], [1.201436, 51.206749], [1.202536, 51.206192], [1.2034, 51.205812], [1.204843, 51.205523], [1.206067, 51.205273], [1.20716, 51.205049], [1.20816, 51.204853], [1.209132, 51.204506], [1.210179, 51.204064], [1.211214, 51.203655], [1.21227, 51.203134], [1.213283, 51.202623], [1.214056, 51.202114], [1.215039, 51.201637], [1.215982, 51.20119], [1.216915, 51.200791], [1.217862, 51.200466], [1.218862, 51.200146], [1.220001, 51.199856], [1.221306, 51.199314], [1.222203, 51.198836], [1.223168, 51.198374], [1.224155, 51.198016], [1.224819, 51.197418], [1.225934, 51.197184], [1.226833, 51.196717], [1.227902, 51.196319], [1.228964, 51.195976], [1.229923, 51.195727], [1.231148, 51.195435], [1.232161, 51.1953], [1.233212, 51.195228], [1.234237, 51.195095], [1.235114, 51.19451], [1.235597, 51.193822], [1.236123, 51.193012], [1.236617, 51.192238], [1.236243, 51.191717], [1.235547, 51.191279], [1.23436, 51.190701], [1.233577, 51.190099], [1.232647, 51.18935], [1.232063, 51.188779], [1.231412, 51.188159], [1.230694, 51.187357], [1.229861, 51.186827], [1.229887, 51.186841], [1.230669, 51.187413], [1.231563, 51.188227], [1.232124, 51.18884], [1.232748, 51.189492], [1.233317, 51.189993], [1.233932, 51.190663], [1.23495, 51.191134], [1.235935, 51.191593], [1.236417, 51.191373], [1.236544, 51.190798], [1.236452, 51.190137], [1.23656, 51.189192], [1.236494, 51.188472], [1.23637, 51.18787], [1.236405, 51.187319], [1.2364, 51.186625], [1.23625, 51.186031], [1.236016, 51.185132], [1.236603, 51.184614], [1.237765, 51.184271], [1.23864, 51.183788], [1.239587, 51.18319], [1.240565, 51.182878], [1.242008, 51.182766], [1.243532, 51.182604], [1.244372, 51.182627], [1.245598, 51.182783], [1.246656, 51.182839], [1.248233, 51.182894], [1.249067, 51.182603], [1.250183, 51.182135], [1.250598, 51.182144], [1.251725, 51.182695], [1.253052, 51.182719], [1.253279, 51.182642], [1.253414, 51.182541], [1.25441, 51.182456], [1.255641, 51.182586], [1.256655, 51.182778], [1.2576, 51.182875], [1.258708, 51.183205], [1.259528, 51.183355], [1.260861, 51.183635], [1.262171, 51.183909], [1.263352, 51.184084], [1.264634, 51.184288], [1.266042, 51.184584], [1.267267, 51.184799], [1.268366, 51.185178], [1.269432, 51.185388], [1.270525, 51.185692], [1.271716, 51.185982], [1.273094, 51.18627], [1.274088, 51.186336], [1.275091, 51.186329], [1.276113, 51.186224], [1.276731, 51.18615], [1.277434, 51.18625], [1.278251, 51.186328], [1.279526, 51.186542], [1.28078, 51.186889], [1.281673, 51.187048], [1.282909, 51.187257], [1.283683, 51.18736], [1.285093, 51.18754], [1.285966, 51.187449], [1.286472, 51.187417], [1.287062, 51.187033], [1.287105, 51.186274], [1.288313, 51.186186], [1.289444, 51.186157], [1.289812, 51.186747], [1.290282, 51.187563], [1.290817, 51.188398], [1.291384, 51.188781], [1.292355, 51.188777], [1.293416, 51.188764], [1.294855, 51.188968], [1.296067, 51.189095], [1.296867, 51.189478], [1.298053, 51.189941], [1.29907, 51.190499], [1.300208, 51.191105], [1.301274, 51.191103], [1.302241, 51.190536], [1.302982, 51.189998], [1.304031, 51.189164], [1.3049, 51.188509], [1.305669, 51.187858], [1.306268, 51.187299], [1.306796, 51.186554], [1.307649, 51.185383], [1.308333, 51.184614], [1.309145, 51.183949], [1.309928, 51.183199], [1.309971, 51.182481], [1.309928, 51.181585], [1.310174, 51.180782], [1.30999, 51.179976], [1.309864, 51.179501], [1.310064, 51.178834], [1.310253, 51.178009], [1.310546, 51.177071], [1.310663, 51.176298], [1.31119, 51.175701], [1.311186, 51.175719], [1.311187, 51.175726], [1.311483, 51.175132], [1.311907, 51.174334], [1.311867, 51.173407], [1.311855, 51.173006], [1.311663, 51.172108], [1.311178, 51.171422], [1.310828, 51.170412], [1.31053, 51.169352], [1.310401, 51.168329], [1.310422, 51.167569], [1.310318, 51.166826], [1.310578, 51.166172], [1.310735, 51.165433], [1.310878, 51.16466], [1.310928, 51.164008], [1.310738, 51.163264], [1.310212, 51.162604], [1.31069, 51.161835], [1.31091, 51.161264], [1.310959, 51.160485], [1.310943, 51.159856], [1.310969, 51.159161], [1.310992, 51.158335], [1.311058, 51.157556], [1.311018, 51.156704], [1.310943, 51.155966], [1.311132, 51.155109], [1.311153, 51.154346], [1.311199, 51.153653], [1.311988, 51.153097], [1.313143, 51.152739], [1.314493, 51.152452], [1.315446, 51.152224], [1.316606, 51.151857], [1.317481, 51.151376], [1.318462, 51.151048], [1.319355, 51.150818], [1.31937, 51.150296], [1.319287, 51.150129], [1.318864, 51.14933], [1.318571, 51.148416], [1.318399, 51.147485], [1.318599, 51.146585], [1.318811, 51.145724], [1.318826, 51.144996], [1.318887, 51.144111], [1.319063, 51.143428], [1.319318, 51.142714], [1.319214, 51.141929], [1.319277, 51.140934], [1.318954, 51.139967], [1.318849, 51.138977], [1.318928, 51.138333], [1.319228, 51.137595], [1.319133, 51.136658], [1.318725, 51.135615], [1.318503, 51.134772], [1.318313, 51.134095], [1.318064, 51.133313], [1.318162, 51.132565], [1.318251, 51.131945], [1.318588, 51.131211], [1.318887, 51.130836], [1.319045, 51.130211], [1.318694, 51.129522], [1.318328, 51.128819], [1.319002, 51.128261], [1.319654, 51.127538], [1.319946, 51.126741], [1.319822, 51.126125], [1.318875, 51.126277], [1.31792, 51.126231], [1.317775, 51.126355]]}}