{"type": "Feature", "properties": {}, "geometry": {"type": "LineString", "coordinates": [[1.095172, 51.26715], [1.09362, 51.268058], [1.09207, 51.269141], [1.093526, 51.270179], [1.092449, 51.271078], [1.091063, 51.27229], [1.089404, 51.273688], [1.087793, 51.273559], [1.087194, 51.273528], [1.088352, 51.274027], [1.087349, 51.275006], [1.085894, 51.275644], [1.084539, 51.276746], [1.08309, 51.27719], [1.081967, 51.277874], [1.08065, 51.27876], [1.079394, 51.279407], [1.07818, 51.280173], [1.07672, 51.281041], [1.075343, 51.281508], [1.073749, 51.280899], [1.07235, 51.280349], [1.070708, 51.280997], [1.069213, 51.281116], [1.067971, 51.280678], [1.066453, 51.280882], [1.064388, 51.2811], [1.062209, 51.281307], [1.060958, 51.281033], [1.059323, 51.280589], [1.05728, 51.280008], [1.055522, 51.279286], [1.053891, 51.279255], [1.051969, 51.278821], [1.049979, 51.278809], [1.048364, 51.278411], [1.046954, 51.27825], [1.04527, 51.278445], [1.043936, 51.279027], [1.042585, 51.279479], [1.041058, 51.280064], [1.039687, 51.280478], [1.038719, 51.279654], [1.037774, 51.279732], [1.036153, 51.279859], [1.03478, 51.279481], [1.032766, 51.279101], [1.030916, 51.279062], [1.029482, 51.278751], [1.027477, 51.278683], [1.025856, 51.278765], [1.024566, 51.27809], [1.024202, 51.276925], [1.023473, 51.27615], [1.021964, 51.275872], [1.02069, 51.275755], [1.019156, 51.275606], [1.017501, 51.275377], [1.016787, 51.274506], [1.016283, 51.273777], [1.015996, 51.272893], [1.015207, 51.272252], [1.015404, 51.271191], [1.014846, 51.269798], [1.014198, 51.268806], [1.013322, 51.267668], [1.012067, 51.266969], [1.011181, 51.266171], [1.009624, 51.266431], [1.007763, 51.266902], [1.006128, 51.266786], [1.004526, 51.266815], [1.003136, 51.266295], [1.002625, 51.265959], [1.002558, 51.265949], [1.002329, 51.265877], [1.001619, 51.265538], [1.000357, 51.264851], [0.999233, 51.264919], [0.998167, 51.264463], [0.997224, 51.263817], [0.99561, 51.264155], [0.993998, 51.263807], [0.992478, 51.263458], [0.990682, 51.262894], [0.98918, 51.262258], [0.98986, 51.261413], [0.98985, 51.260561], [0.988404, 51.260394], [0.987213, 51.260076], [0.986173, 51.25966], [0.984941, 51.259175], [0.983331, 51.258929], [0.98222, 51.258705], [0.981028, 51.258178], [0.979604, 51.257446], [0.978664, 51.256855], [0.977166, 51.256395], [0.97529, 51.256237], [0.973145, 51.25603], [0.971052, 51.255816], [0.969152, 51.255449], [0.967812, 51.254899], [0.967439, 51.253865], [0.967097, 51.252896], [0.967243, 51.251271], [0.966423, 51.250132], [0.966139, 51.24925], [0.965435, 51.248332], [0.96459, 51.247178], [0.963853, 51.2462], [0.963798, 51.245464], [0.962885, 51.244966], [0.962082, 51.244022], [0.96241, 51.243496], [0.963325, 51.242823], [0.964285, 51.241963], [0.965033, 51.241075], [0.964656, 51.240181], [0.963594, 51.239381], [0.962699, 51.238576], [0.962064, 51.237645], [0.962145, 51.236534], [0.961808, 51.235613], [0.961107, 51.234614], [0.960043, 51.233961], [0.958933, 51.233292], [0.957865, 51.232559], [0.956186, 51.23213], [0.955084, 51.231315], [0.954506, 51.230307], [0.953942, 51.229054], [0.952748, 51.229136], [0.951212, 51.229358], [0.949713, 51.229859], [0.948633, 51.230341], [0.947602, 51.230776], [0.946353, 51.231027], [0.944626, 51.230518], [0.943426, 51.230541], [0.941776, 51.229993], [0.940462, 51.229492], [0.939113, 51.228956], [0.937867, 51.227933], [0.93756, 51.226872], [0.93711, 51.225699], [0.936206, 51.224909], [0.93511, 51.224232], [0.934398, 51.223313], [0.933848, 51.22242], [0.933116, 51.221617], [0.932376, 51.220635], [0.931894, 51.219804], [0.931116, 51.219097], [0.930218, 51.218353], [0.929199, 51.217579], [0.928783, 51.216685], [0.928413, 51.215738], [0.928194, 51.214774], [0.927899, 51.213813], [0.927055, 51.213011], [0.926372, 51.21225], [0.925334, 51.211811], [0.92429, 51.211028], [0.922889, 51.210421], [0.921882, 51.209819], [0.920801, 51.209259], [0.91942, 51.208841], [0.91875, 51.208275], [0.919544, 51.20766], [0.92103, 51.207032], [0.92185, 51.206689], [0.920866, 51.206003], [0.920481, 51.205177], [0.921049, 51.204291], [0.920509, 51.203439], [0.919353, 51.202927], [0.917989, 51.202205], [0.916738, 51.201461], [0.91536, 51.200723], [0.914792, 51.199884], [0.913074, 51.198794], [0.91162, 51.197847], [0.910637, 51.197088], [0.909678, 51.196312], [0.908862, 51.195689], [0.908106, 51.194862], [0.910193, 51.1939], [0.910933, 51.193148], [0.911519, 51.192441], [0.912217, 51.191505], [0.913035, 51.19039], [0.91388, 51.189475], [0.915547, 51.188847], [0.916798, 51.188359], [0.917624, 51.187717], [0.918685, 51.187289], [0.920015, 51.186708], [0.921623, 51.186198], [0.922647, 51.18587], [0.92425, 51.185374], [0.925695, 51.184884], [0.927053, 51.184401], [0.928234, 51.184575], [0.929815, 51.184826], [0.930569, 51.184825], [0.93058, 51.184823], [0.930693, 51.185049], [0.943628, 51.179631], [0.945185, 51.178772], [0.946702, 51.178118], [0.947944, 51.177601], [0.949447, 51.176983], [0.95129, 51.176308], [0.952597, 51.175829], [0.954146, 51.174945], [0.955592, 51.174113], [0.957131, 51.173261], [0.958439, 51.172305], [0.959768, 51.171603], [0.960955, 51.170842], [0.962422, 51.169998], [0.963724, 51.168894], [0.965312, 51.167631], [0.966085, 51.167224], [0.966878, 51.167388], [0.967149, 51.167911], [0.967401, 51.168353], [0.967779, 51.168778], [0.968186, 51.169145], [0.969072, 51.170026], [0.970062, 51.170638], [0.96959, 51.171287], [0.969648, 51.172083], [0.969682, 51.172846], [0.969806, 51.173546], [0.969698, 51.174685], [0.969116, 51.175733], [0.967886, 51.176651], [0.96667, 51.177513], [0.966054, 51.178741], [0.965375, 51.17969], [0.964702, 51.180433], [0.963463, 51.181037], [0.963004, 51.18151], [0.962729, 51.182507], [0.963519, 51.183133], [0.965474, 51.183018], [0.96689, 51.183559], [0.967852, 51.184777], [0.968153, 51.186025], [0.968718, 51.1876], [0.969227, 51.188798], [0.969502, 51.189937], [0.969998, 51.191101], [0.969735, 51.191786], [0.968313, 51.191814], [0.96828, 51.19272], [0.968512, 51.193759], [0.968718, 51.194765], [0.969372, 51.195457], [0.970149, 51.196144], [0.970004, 51.196496], [0.970346, 51.197715], [0.970483, 51.198853], [0.970495, 51.199909], [0.970801, 51.200704], [0.970486, 51.201754], [0.971296, 51.202061], [0.972501, 51.202566], [0.973127, 51.203447], [0.974856, 51.203794], [0.97691, 51.204062], [0.977868, 51.203712], [0.978667, 51.203871], [0.979648, 51.204238], [0.981068, 51.204619], [0.98241, 51.204868], [0.983826, 51.205259], [0.985497, 51.205501], [0.986878, 51.205809], [0.987676, 51.204858], [0.988899, 51.204296], [0.990278, 51.204174], [0.991688, 51.204361], [0.992031, 51.205192], [0.992845, 51.205969], [0.992484, 51.206867], [0.992359, 51.207873], [0.99243, 51.208837], [0.991627, 51.209614], [0.990705, 51.210325], [0.989984, 51.211527], [0.989977, 51.212526], [0.990149, 51.213543], [0.990665, 51.214505], [0.991677, 51.215242], [0.993099, 51.21559], [0.994054, 51.215096], [0.995072, 51.214526], [0.996124, 51.213995], [0.997586, 51.21389], [0.999114, 51.213979], [0.99968, 51.213967], [1.000839, 51.21445], [1.001826, 51.214957], [1.002688, 51.215494], [1.003636, 51.216094], [1.004219, 51.216803], [1.005164, 51.217628], [1.005946, 51.218403], [1.006587, 51.219249], [1.007065, 51.220194], [1.006948, 51.221273], [1.007121, 51.221901], [1.007192, 51.222599], [1.007133, 51.223848], [1.006564, 51.224735], [1.005555, 51.225559], [1.004597, 51.226121], [1.003251, 51.226305], [1.002188, 51.225897], [1.000982, 51.225087], [0.999526, 51.224527], [0.998946, 51.224759], [0.99981, 51.225595], [1.000549, 51.226384], [1.000908, 51.227353], [1.001163, 51.228445], [1.002346, 51.229075], [1.003473, 51.229796], [1.004611, 51.230714], [1.005006, 51.231791], [1.005003, 51.232866], [1.005086, 51.234033], [1.004824, 51.235099], [1.004558, 51.23621], [1.004971, 51.237283], [1.005259, 51.238319], [1.005404, 51.239159], [1.005741, 51.240223], [1.00661, 51.241114], [1.007448, 51.241994], [1.008927, 51.24275], [1.009574, 51.243888], [1.009731, 51.244811], [1.010049, 51.245836], [1.011547, 51.246197], [1.013514, 51.246471], [1.015131, 51.246795], [1.016673, 51.247183], [1.017911, 51.247658], [1.019206, 51.247984], [1.020642, 51.248007], [1.022045, 51.24765], [1.023489, 51.247283], [1.024592, 51.246944], [1.025611, 51.246827], [1.02699, 51.246704], [1.028398, 51.246779], [1.029721, 51.246335], [1.03091, 51.246123], [1.03203, 51.246035], [1.032047, 51.245864]]}}